start=new Date('2022-10-24T00:00:00.000Z').valueOf();
sats=[{"OBJECT_NAME":"STARLINK-4176","OBJECT_ID":"2022-086AZ","MEAN_MOTION":"15.29999532","EPHEMERIS_TYPE":"0","COUNTRY_CODE":"US","FILE":"3630604","REV_AT_EPOCH":"130","RCS_SIZE":"LARGE","ARG_OF_PERICENTER":"36.4831","RA_OF_ASC_NODE":"314.0009","NORAD_CAT_ID":"53289","TLE_LINE2":"2 53289  53.2174 314.0009 0001847  36.4831  95.9869 15.29999532  1307","CLASSIFICATION_TYPE":"U","OBJECT_TYPE":"PAYLOAD","APOAPSIS":"477.082","TIME_SYSTEM":"UTC","ECCENTRICITY":"0.00018470","GP_ID":"215997432","MEAN_ELEMENT_THEORY":"SGP4","CENTER_NAME":"EARTH","BSTAR":"-0.04235400000000","LAUNCH_DATE":"2022-07-24","PERIAPSIS":"474.550","SITE":"AFETR","SEMIMAJOR_AXIS":"6853.951","INCLINATION":"53.2174","EPOCH":"2022-10-23T22:00:00.999936","MEAN_MOTION_DDOT":"0.0000000000000","ELEMENT_SET_NO":"999","PERIOD":"94.118","REF_FRAME":"TEME","TLE_LINE1":"1 53289U 22086AZ  22296.91667824 -.01136638  00000-0 -42354-1 0  9998","MEAN_MOTION_DOT":"-0.01136638","DECAY_DATE":null,"MEAN_ANOMALY":"95.9869"},{"ECCENTRICITY":"0.00015260","TIME_SYSTEM":"UTC","GP_ID":"215997596","NORAD_CAT_ID":"53290","ARG_OF_PERICENTER":"50.3652","RA_OF_ASC_NODE":"318.2457","APOAPSIS":"537.953","TLE_LINE2":"2 53290  53.2173 318.2457 0001526  50.3652 249.5107 15.09771982  1308","CLASSIFICATION_TYPE":"U","OBJECT_TYPE":"PAYLOAD","COUNTRY_CODE":"US","REV_AT_EPOCH":"130","RCS_SIZE":"LARGE","FILE":"3630604","OBJECT_NAME":"STARLINK-4149","EPHEMERIS_TYPE":"0","MEAN_MOTION":"15.09771982","OBJECT_ID":"2022-086BA","PERIOD":"95.379","ELEMENT_SET_NO":"999","MEAN_ANOMALY":"249.5107","DECAY_DATE":null,"TLE_LINE1":"1 53290U 22086BA  22296.91667824 -.00887110  00000-0 -58572-1 0  9996","MEAN_MOTION_DOT":"-0.00887110","REF_FRAME":"TEME","EPOCH":"2022-10-23T22:00:00.999936","INCLINATION":"53.2173","MEAN_MOTION_DDOT":"0.0000000000000","BSTAR":"-0.05857200000000","SITE":"AFETR","SEMIMAJOR_AXIS":"6915.033","PERIAPSIS":"535.843","LAUNCH_DATE":"2022-07-24","CENTER_NAME":"EARTH","MEAN_ELEMENT_THEORY":"SGP4"},{"MEAN_ELEMENT_THEORY":"SGP4","CENTER_NAME":"EARTH","PERIAPSIS":"465.807","LAUNCH_DATE":"2022-07-24","SEMIMAJOR_AXIS":"6845.141","SITE":"AFETR","BSTAR":"-0.03871500000000","MEAN_MOTION_DDOT":"0.0000000000000","INCLINATION":"53.2166","EPOCH":"2022-10-23T22:00:00.999936","REF_FRAME":"TEME","MEAN_ANOMALY":"175.4953","DECAY_DATE":null,"TLE_LINE1":"1 53291U 22086BB  22296.91667824 -.01139746  00000-0 -38715-1 0  9990","MEAN_MOTION_DOT":"-0.01139746","PERIOD":"93.936","ELEMENT_SET_NO":"999","MEAN_MOTION":"15.32954087","OBJECT_ID":"2022-086BB","EPHEMERIS_TYPE":"0","OBJECT_NAME":"STARLINK-4166","REV_AT_EPOCH":"130","RCS_SIZE":"LARGE","FILE":"3630604","COUNTRY_CODE":"US","OBJECT_TYPE":"PAYLOAD","TLE_LINE2":"2 53291  53.2166 313.8403 0001752  38.5375 175.4953 15.32954087  1305","CLASSIFICATION_TYPE":"U","APOAPSIS":"468.205","NORAD_CAT_ID":"53291","RA_OF_ASC_NODE":"313.8403","ARG_OF_PERICENTER":"38.5375","GP_ID":"215997688","ECCENTRICITY":"0.00017520","TIME_SYSTEM":"UTC"},{"OBJECT_NAME":"STARLINK-4159","MEAN_MOTION":"15.10352799","OBJECT_ID":"2022-086BC","EPHEMERIS_TYPE":"0","COUNTRY_CODE":"US","REV_AT_EPOCH":"130","RCS_SIZE":"LARGE","FILE":"3630604","NORAD_CAT_ID":"53292","RA_OF_ASC_NODE":"318.2455","ARG_OF_PERICENTER":"39.2573","TLE_LINE2":"2 53292  53.2173 318.2455 0001579  39.2573 294.3901 15.10352799  1307","CLASSIFICATION_TYPE":"U","OBJECT_TYPE":"PAYLOAD","APOAPSIS":"536.217","TIME_SYSTEM":"UTC","ECCENTRICITY":"0.00015790","GP_ID":"215998414","MEAN_ELEMENT_THEORY":"SGP4","CENTER_NAME":"EARTH","BSTAR":"-0.06961700000000","PERIAPSIS":"534.034","LAUNCH_DATE":"2022-07-24","SITE":"AFETR","SEMIMAJOR_AXIS":"6913.260","INCLINATION":"53.2173","EPOCH":"2022-10-23T22:00:00.999936","MEAN_MOTION_DDOT":"0.0000000000000","PERIOD":"95.342","ELEMENT_SET_NO":"999","REF_FRAME":"TEME","DECAY_DATE":null,"MEAN_ANOMALY":"294.3901","TLE_LINE1":"1 53292U 22086BC  22296.91667824 -.01069486  00000-0 -69617-1 0  9999","MEAN_MOTION_DOT":"-0.01069486"},{"EPOCH":"2022-10-23T22:00:00.999936","INCLINATION":"53.2166","MEAN_MOTION_DDOT":"0.0000000000000","PERIOD":"92.610","ELEMENT_SET_NO":"999","MEAN_ANOMALY":"184.5394","DECAY_DATE":null,"MEAN_MOTION_DOT":"-0.01056349","TLE_LINE1":"1 53293U 22086BD  22296.91667824 -.01056349  00000-0 -17073-1 0  9993","REF_FRAME":"TEME","CENTER_NAME":"EARTH","MEAN_ELEMENT_THEORY":"SGP4","BSTAR":"-0.01707300000000","SITE":"AFETR","SEMIMAJOR_AXIS":"6780.540","PERIAPSIS":"401.552","LAUNCH_DATE":"2022-07-24","NORAD_CAT_ID":"53293","ARG_OF_PERICENTER":"66.9220","RA_OF_ASC_NODE":"311.5731","APOAPSIS":"403.258","OBJECT_TYPE":"PAYLOAD","TLE_LINE2":"2 53293  53.2166 311.5731 0001258  66.9220 184.5394 15.54913957  1306","CLASSIFICATION_TYPE":"U","ECCENTRICITY":"0.00012580","TIME_SYSTEM":"UTC","GP_ID":"215997851","OBJECT_NAME":"STARLINK-4148","EPHEMERIS_TYPE":"0","MEAN_MOTION":"15.54913957","OBJECT_ID":"2022-086BD","COUNTRY_CODE":"US","RCS_SIZE":"LARGE","REV_AT_EPOCH":"130","FILE":"3630604"},{"MEAN_MOTION_DDOT":"0.0000000000000","INCLINATION":"53.2169","EPOCH":"2022-10-23T22:00:00.999936","REF_FRAME":"TEME","DECAY_DATE":null,"MEAN_ANOMALY":"187.4189","MEAN_MOTION_DOT":"-0.01064637","TLE_LINE1":"1 53294U 22086BE  22296.91667824 -.01064637  00000-0 -17211-1 0  9997","PERIOD":"92.609","ELEMENT_SET_NO":"999","MEAN_ELEMENT_THEORY":"SGP4","CENTER_NAME":"EARTH","PERIAPSIS":"401.547","LAUNCH_DATE":"2022-07-24","SEMIMAJOR_AXIS":"6780.497","SITE":"AFETR","BSTAR":"-0.01721100000000","CLASSIFICATION_TYPE":"U","TLE_LINE2":"2 53294  53.2169 311.6733 0001202  64.8281 187.4189 15.54928812  1306","OBJECT_TYPE":"PAYLOAD","APOAPSIS":"403.177","NORAD_CAT_ID":"53294","RA_OF_ASC_NODE":"311.6733","ARG_OF_PERICENTER":"64.8281","GP_ID":"215998015","ECCENTRICITY":"0.00012020","TIME_SYSTEM":"UTC","MEAN_MOTION":"15.54928812","OBJECT_ID":"2022-086BE","EPHEMERIS_TYPE":"0","OBJECT_NAME":"STARLINK-4146","RCS_SIZE":"LARGE","REV_AT_EPOCH":"130","FILE":"3630604","COUNTRY_CODE":"US"},{"PERIAPSIS":"538.224","LAUNCH_DATE":"2022-08-10","SEMIMAJOR_AXIS":"6917.820","SITE":"AFETR","BSTAR":"-0.00223210000000","MEAN_ELEMENT_THEORY":"SGP4","CENTER_NAME":"EARTH","REF_FRAME":"TEME","DECAY_DATE":null,"MEAN_ANOMALY":"255.7036","TLE_LINE1":"1 53388U 22097A   22296.91667824 -.00035657  00000-0 -22321-2 0  9991","MEAN_MOTION_DOT":"-0.00035657","PERIOD":"95.436","ELEMENT_SET_NO":"999","MEAN_MOTION_DDOT":"0.0000000000000","INCLINATION":"53.2160","EPOCH":"2022-10-23T22:00:00.999936","RCS_SIZE":"LARGE","REV_AT_EPOCH":"130","FILE":"3630604","COUNTRY_CODE":"US","MEAN_MOTION":"15.08859620","OBJECT_ID":"2022-097A","EPHEMERIS_TYPE":"0","OBJECT_NAME":"STARLINK-4522","GP_ID":"215997440","ECCENTRICITY":"0.00021130","TIME_SYSTEM":"UTC","TLE_LINE2":"2 53388  53.2160 258.2687 0002113  35.1004 255.7036 15.08859620  1300","OBJECT_TYPE":"PAYLOAD","CLASSIFICATION_TYPE":"U","APOAPSIS":"541.147","NORAD_CAT_ID":"53388","ARG_OF_PERICENTER":"35.1004","RA_OF_ASC_NODE":"258.2687"},{"CENTER_NAME":"EARTH","MEAN_ELEMENT_THEORY":"SGP4","SITE":"AFETR","SEMIMAJOR_AXIS":"6917.818","LAUNCH_DATE":"2022-08-10","PERIAPSIS":"538.235","BSTAR":"-0.00186950000000","MEAN_MOTION_DDOT":"0.0000000000000","EPOCH":"2022-10-23T22:00:00.999936","INCLINATION":"53.2171","TLE_LINE1":"1 53389U 22097B   22296.91667824 -.00029936  00000-0 -18695-2 0  9994","MEAN_MOTION_DOT":"-0.00029936","DECAY_DATE":null,"MEAN_ANOMALY":"291.0143","REF_FRAME":"TEME","ELEMENT_SET_NO":"999","PERIOD":"95.436","EPHEMERIS_TYPE":"0","OBJECT_ID":"2022-097B","MEAN_MOTION":"15.08860496","OBJECT_NAME":"STARLINK-4523","FILE":"3630604","REV_AT_EPOCH":"130","RCS_SIZE":"LARGE","COUNTRY_CODE":"US","APOAPSIS":"541.131","TLE_LINE2":"2 53389  53.2171 258.2596 0002093  39.7914 291.0143 15.08860496  1304","OBJECT_TYPE":"PAYLOAD","CLASSIFICATION_TYPE":"U","ARG_OF_PERICENTER":"39.7914","RA_OF_ASC_NODE":"258.2596","NORAD_CAT_ID":"53389","GP_ID":"215997604","ECCENTRICITY":"0.00020930","TIME_SYSTEM":"UTC"},{"NORAD_CAT_ID":"53390","ARG_OF_PERICENTER":"36.6687","RA_OF_ASC_NODE":"258.2610","APOAPSIS":"541.009","OBJECT_TYPE":"PAYLOAD","TLE_LINE2":"2 53390  53.2177 258.2610 0001961  36.6687 274.1434 15.08870345  1304","CLASSIFICATION_TYPE":"U","TIME_SYSTEM":"UTC","ECCENTRICITY":"0.00019610","GP_ID":"215997696","OBJECT_NAME":"STARLINK-4517","EPHEMERIS_TYPE":"0","MEAN_MOTION":"15.08870345","OBJECT_ID":"2022-097C","COUNTRY_CODE":"US","REV_AT_EPOCH":"130","RCS_SIZE":"LARGE","FILE":"3630604","EPOCH":"2022-10-23T22:00:00.999936","INCLINATION":"53.2177","MEAN_MOTION_DDOT":"0.0000000000000","PERIOD":"95.436","ELEMENT_SET_NO":"999","DECAY_DATE":null,"MEAN_ANOMALY":"274.1434","MEAN_MOTION_DOT":"-0.00050316","TLE_LINE1":"1 53390U 22097C   22296.91667824 -.00050316  00000-0 -31628-2 0  9993","REF_FRAME":"TEME","CENTER_NAME":"EARTH","MEAN_ELEMENT_THEORY":"SGP4","BSTAR":"-0.00316280000000","SITE":"AFETR","SEMIMAJOR_AXIS":"6917.788","PERIAPSIS":"538.296","LAUNCH_DATE":"2022-08-10"},{"SEMIMAJOR_AXIS":"6917.850","SITE":"AFETR","LAUNCH_DATE":"2022-08-10","PERIAPSIS":"538.400","BSTAR":"-0.00116760000000","CENTER_NAME":"EARTH","MEAN_ELEMENT_THEORY":"SGP4","MEAN_MOTION_DOT":"-0.00018828","TLE_LINE1":"1 53391U 22097D   22296.91667824 -.00018828  00000-0 -11676-2 0  9997","MEAN_ANOMALY":"309.7974","DECAY_DATE":null,"REF_FRAME":"TEME","ELEMENT_SET_NO":"999","PERIOD":"95.437","MEAN_MOTION_DDOT":"0.0000000000000","EPOCH":"2022-10-23T22:00:00.999936","INCLINATION":"53.2179","FILE":"3630604","REV_AT_EPOCH":"130","RCS_SIZE":"LARGE","COUNTRY_CODE":"US","EPHEMERIS_TYPE":"0","OBJECT_ID":"2022-097D","MEAN_MOTION":"15.08850020","OBJECT_NAME":"STARLINK-4521","GP_ID":"215998422","TIME_SYSTEM":"UTC","ECCENTRICITY":"0.00019000","APOAPSIS":"541.029","OBJECT_TYPE":"PAYLOAD","TLE_LINE2":"2 53391  53.2179 258.2616 0001900  41.0117 309.7974 15.08850020  1306","CLASSIFICATION_TYPE":"U","RA_OF_ASC_NODE":"258.2616","ARG_OF_PERICENTER":"41.0117","NORAD_CAT_ID":"53391"}];
